STARLINK-5975           
1 57372U 23099AW  26199.44857364 -.00001114  00000+0 -30986-4 0  9993
2 57372  43.0032 223.5100 0001310 284.6531  75.4175 15.27572741166198
STARLINK-6370           
1 57373U 23099AX  26199.44214894 -.00001238  00000+0 -35451-4 0  9998
2 57373  43.0031 223.4668 0001619 290.2266  69.8411 15.27585280166198
STARLINK-6369           
1 57374U 23099AY  26199.04825565 -.00000279  00000+0 -60654-6 0  9997
2 57374  43.0015 207.5593 0001229 280.8240  79.2473 15.27575245166345
STARLINK-6363           
1 57375U 23099AZ  26199.37547567 -.00000275  00000+0 -48144-6 0  9993
2 57375  43.0016 223.8300 0001093 277.6042  82.4686 15.27573800166186
STARLINK-6367           
1 57376U 23099BA  26199.41823144  .00004742  00000+0  18169-3 0  9999
2 57376  42.9981 219.8896 0001220 283.5031  76.5684 15.27589887166237
STARLINK-6358           
1 57377U 23099BB  26199.44681600  .00000910  00000+0  42608-4 0  9991
2 57377  43.0011 226.9331 0001283 278.6951  81.3756 15.27568371166141
STARLINK-6364           
1 57378U 23099BC  26199.04827198 -.00000813  00000+0 -20024-4 0  9994
2 57378  43.0023 196.2628 0001340 279.5018  80.5682 15.27577005167213
STARLINK-6361           
1 57379U 23099BD  26199.41437432 -.00000504  00000+0 -87824-5 0  9993
2 57379  43.0010 219.8585 0001105 277.3216  82.7510 15.27572702166233
STARLINK-6366           
1 57380U 23099BE  26199.37906695  .00000846  00000+0  40280-4 0  9993
2 57380  43.0037 194.4379 0001601 284.4492  75.6182 15.27576525167255
STARLINK-6371           
1 57381U 23099BF  26199.37133242 -.00000336  00000+0 -26746-5 0  9992
2 57381  43.0012 205.6725 0001231 274.7745  85.2966 15.27575957167133
STARLING 4              
1 57386U 23100A   26199.59318391  .00000688  00000+0  52223-4 0  9990
2 57386  99.5098 224.6554 0006634  20.8634 339.2857 15.06842223164631
STARLING 2              
1 57387U 23100B   26199.65993646  .00001312  00000+0  94096-4 0  9999
2 57387  99.5088 224.7576 0005759  31.9118 328.2451 15.06838956164640
STARLING 1              
1 57388U 23100C   26199.65972147  .00000661  00000+0  50438-4 0  9991
2 57388  99.5126 225.3784 0005510 166.7426 193.3941 15.06844071164646
STARLING 3              
1 57389U 23100D   26199.05292911  .00003020  00000+0  17784-3 0  9998
2 57389  99.5046 227.3666 0005346  25.0222 335.1261 15.12716359164732
LEMUR-2-DEVERILL-M-T    
1 57391U 23100F   26199.08763222  .00014362  00000+0  34880-3 0  9999
2 57391  99.4447 246.8076 0004726 284.7623  75.3093 15.41179399166007
LEO 3                   
1 57392U 23100G   26199.33401587 -.00000049  00000+0 -48443-5 0  9992
2 57392  99.5676 323.3702 0017376 296.6669  63.2696 13.68420837149905
TIANMU-1 07             
1 57399U 23101A   26199.62409980  .00002999  00000+0  10537-3 0  9992
2 57399  97.2572 249.5743 0003503  57.6137 302.5443 15.30137716166458
TIANMU-1 08             
1 57400U 23101B   26199.59065865  .00003043  00000+0  10687-3 0  9998
2 57400  97.2561 249.3077 0004281  37.5715 322.5825 15.30141047166447
TIANMU-1 09             
1 57401U 23101C   26199.57332948  .00003147  00000+0  11030-3 0  9994
2 57401  97.2519 248.6907 0004120  56.9853 303.1784 15.30182792166446
TIANMU-1 10             
1 57402U 23101D   26199.60692831  .00003086  00000+0  10829-3 0  9996
2 57402  97.2599 249.8061 0005355  44.9451 315.2223 15.30156606166448
STARLINK-30240          
1 57404U 23102A   26199.48858711  .00001418  00000+0  61039-4 0  9993
2 57404  43.0021 229.9240 0001979 275.3981  84.6645 15.27587265166241
STARLINK-30195          
1 57406U 23102C   26199.58335648  .00345404  00000+0  28032-2 0  9995
2 57406  42.9993 230.3018 0001898 279.7874 167.6447 15.68887300  5834
STARLINK-30207          
1 57407U 23102D   26199.43013826  .00000225  00000+0  17701-4 0  9993
2 57407  43.0036 215.7200 0001516 273.2120  86.8558 15.27575742166411
STARLINK-30205          
1 57408U 23102E   26199.50992159 -.00028778  00000+0 -10317-2 0  9996
2 57408  43.0033 230.0961 0002694 285.8791  74.1764 15.27846719166249
STARLINK-30222          
1 57409U 23102F   26198.56417558  .00000752  00000+0  36848-4 0  9996
2 57409  43.0039 235.0293 0001874 282.4584  77.6058 15.27579331166103
STARLINK-30172          
1 57410U 23102G   26199.47463370  .00028150  00000+0  10336-2 0  9996
2 57410  43.0025 230.6685 0000430 128.1200 231.9691 15.27420497166234
STARLINK-30214          
1 57411U 23102H   26199.47701764  .00000674  00000+0  34025-4 0  9993
2 57411  43.0049 229.8468 0001969 282.3434  77.7198 15.27577993166197
STARLINK-30182          
1 57412U 23102J   26199.15908116  .00000782  00000+0  37939-4 0  9996
2 57412  43.0029 231.7547 0002018 277.3487  82.7135 15.27581032166190
STARLINK-30191          
1 57413U 23102K   26199.30525427 -.00002763  00000+0 -90966-4 0  9996
2 57413  43.0037 169.0057 0001529 285.3174  74.7508 15.27557541166943
STARLINK-30193          
1 57414U 23102L   26199.58335648  .00147645  00000+0  23103-2 0  9995
2 57414  43.0006 222.1679 0001937 283.5841 339.4950 15.52505833  5900
