OBJECT_NAME,OBJECT_ID,EPOCH,MEAN_MOTION,ECCENTRICITY,INCLINATION,RA_OF_ASC_NODE,ARG_OF_PERICENTER,MEAN_ANOMALY,EPHEMERIS_TYPE,CLASSIFICATION_TYPE,NORAD_CAT_ID,ELEMENT_SET_NO,REV_AT_EPOCH,BSTAR,MEAN_MOTION_DOT,MEAN_MOTION_DDOT
STARLINK-5975,2023-099AW,2026-07-18T10:45:56.762496,15.27572741,.00013101,43.0032,223.5100,284.6531,75.4175,0,U,57372,999,16619,-.30985722E-4,-.1114E-4,0
STARLINK-6370,2023-099AX,2026-07-18T10:36:41.668416,15.27585280,.00016194,43.0031,223.4668,290.2266,69.8411,0,U,57373,999,16619,-.35450793E-4,-.1238E-4,0
STARLINK-6369,2023-099AY,2026-07-18T01:09:29.288160,15.27575245,.00012292,43.0015,207.5593,280.8240,79.2473,0,U,57374,999,16634,-.606545E-6,-.279E-5,0
STARLINK-6363,2023-099AZ,2026-07-18T09:00:41.097888,15.27573800,.0001093,43.0016,223.8300,277.6042,82.4686,0,U,57375,999,16618,-.48144E-6,-.275E-5,0
STARLINK-6367,2023-099BA,2026-07-18T10:02:15.196416,15.27589887,.00012202,42.9981,219.8896,283.5031,76.5684,0,U,57376,999,16623,.18169106E-3,.4742E-4,0
STARLINK-6358,2023-099BB,2026-07-18T10:43:24.902400,15.27568371,.00012837,43.0011,226.9331,278.6951,81.3756,0,U,57377,999,16614,.42607954E-4,.91E-5,0
STARLINK-6364,2023-099BC,2026-07-18T01:09:30.699072,15.27577005,.00013407,43.0023,196.2628,279.5018,80.5682,0,U,57378,999,16721,-.20023995E-4,-.813E-5,0
STARLINK-6361,2023-099BD,2026-07-18T09:56:41.941248,15.27572702,.00011051,43.0010,219.8585,277.3216,82.7510,0,U,57379,999,16623,-.8782445E-5,-.504E-5,0
STARLINK-6366,2023-099BE,2026-07-18T09:05:51.384480,15.27576525,.00016012,43.0037,194.4379,284.4492,75.6182,0,U,57380,999,16725,.40280004E-4,.846E-5,0
STARLINK-6371,2023-099BF,2026-07-18T08:54:43.121088,15.27575957,.0001231,43.0012,205.6725,274.7745,85.2966,0,U,57381,999,16713,-.2674552E-5,-.336E-5,0
STARLING 4,2023-100A,2026-07-18T14:14:11.089824,15.06842223,.00066347,99.5098,224.6554,20.8634,339.2857,0,U,57386,999,16463,.5222273E-4,.688E-5,0
STARLING 2,2023-100B,2026-07-18T15:50:18.510144,15.06838956,.00057594,99.5088,224.7576,31.9118,328.2451,0,U,57387,999,16464,.94095894E-4,.1312E-4,0
STARLING 1,2023-100C,2026-07-18T15:49:59.935008,15.06844071,.00055101,99.5126,225.3784,166.7426,193.3941,0,U,57388,999,16464,.50437957E-4,.661E-5,0
STARLING 3,2023-100D,2026-07-18T01:16:13.075104,15.12716359,.00053468,99.5046,227.3666,25.0222,335.1261,0,U,57389,999,16473,.17784396E-3,.302E-4,0
LEMUR-2-DEVERILL-M-T,2023-100F,2026-07-18T02:06:11.423808,15.41179399,.00047265,99.4447,246.8076,284.7623,75.3093,0,U,57391,999,16600,.34880268E-3,.14362E-3,0
LEO 3,2023-100G,2026-07-18T08:00:58.971168,13.68420837,.00173767,99.5676,323.3702,296.6669,63.2696,0,U,57392,999,14990,-.4844316E-5,-.49E-6,0
TIANMU-1 07,2023-101A,2026-07-18T14:58:42.222720,15.30137716,.00035038,97.2572,249.5743,57.6137,302.5443,0,U,57399,999,16645,.10537144E-3,.2999E-4,0
TIANMU-1 08,2023-101B,2026-07-18T14:10:32.907360,15.30141047,.00042814,97.2561,249.3077,37.5715,322.5825,0,U,57400,999,16644,.10686623E-3,.3043E-4,0
TIANMU-1 09,2023-101C,2026-07-18T13:45:35.667072,15.30182792,.00041203,97.2519,248.6907,56.9853,303.1784,0,U,57401,999,16644,.11029552E-3,.3147E-4,0
TIANMU-1 10,2023-101D,2026-07-18T14:33:58.605984,15.30156606,.00053557,97.2599,249.8061,44.9451,315.2223,0,U,57402,999,16644,.10829248E-3,.3086E-4,0
STARLINK-30240,2023-102A,2026-07-18T11:43:33.926304,15.27587265,.00019798,43.0021,229.9240,275.3981,84.6645,0,U,57404,999,16624,.61038535E-4,.1418E-4,0
STARLINK-30195,2023-102C,2026-07-18T14:00:01.999872,15.68887300,.00018981,42.9993,230.3018,279.7874,167.6447,0,U,57406,999,583,.28032324E-2,.345404E-2,0
STARLINK-30207,2023-102D,2026-07-18T10:19:23.945664,15.27575742,.00015168,43.0036,215.7200,273.2120,86.8558,0,U,57407,999,16641,.17700625E-4,.225E-5,0
STARLINK-30205,2023-102E,2026-07-18T12:14:17.225376,15.27846719,.00026944,43.0033,230.0961,285.8791,74.1764,0,U,57408,999,16624,-.10317074E-2,-.28778E-3,0
STARLINK-30222,2023-102F,2026-07-17T13:32:24.770112,15.27579331,.0001874,43.0039,235.0293,282.4584,77.6058,0,U,57409,999,16610,.36848E-4,.752E-5,0
STARLINK-30172,2023-102G,2026-07-18T11:23:28.351680,15.27420497,.00004303,43.0025,230.6685,128.1200,231.9691,0,U,57410,999,16623,.10335605E-2,.2815E-3,0
STARLINK-30214,2023-102H,2026-07-18T11:26:54.324096,15.27577993,.00019695,43.0049,229.8468,282.3434,77.7198,0,U,57411,999,16619,.34024759E-4,.674E-5,0
STARLINK-30182,2023-102J,2026-07-18T03:49:04.612224,15.27581032,.00020188,43.0029,231.7547,277.3487,82.7135,0,U,57412,999,16619,.37939112E-4,.782E-5,0
STARLINK-30191,2023-102K,2026-07-18T07:19:33.968928,15.27557541,.00015294,43.0037,169.0057,285.3174,74.7508,0,U,57413,999,16694,-.90966075E-4,-.2763E-4,0
STARLINK-30193,2023-102L,2026-07-18T14:00:01.999872,15.52505833,.00019371,43.0006,222.1679,283.5841,339.4950,0,U,57414,999,590,.231035E-2,.147645E-2,0
